{"type": "FeatureCollection", "features": [ {"type": "Feature", "properties": {"norad_id": 67041, "name": "STARLINK-35765", "group": "last-30-days", "lat": -31.699387006362674, "lon": -47.647908356534444, "alt_km": 388.28993348959375, "timestamp": "2025-12-27T17:24:56.108662+00:00", "meta": {"OBJECT_NAME": "STARLINK-35765", "OBJECT_ID": "2025-294M", "EPOCH": "2025-12-27T12:00:02.000160", "MEAN_MOTION": 15.6150132, "ECCENTRICITY": 0.0001425, "INCLINATION": 42.999, "RA_OF_ASC_NODE": 92.1797, "ARG_OF_PERICENTER": 280.5071, "MEAN_ANOMALY": 120.3947, "EPHEMERIS_TYPE": 0, "CLASSIFICATION_TYPE": "U", "NORAD_CAT_ID": 67041, "ELEMENT_SET_NO": 999, "REV_AT_EPOCH": 248, "BSTAR": -0.024783, "MEAN_MOTION_DOT": -0.01925963, "MEAN_MOTION_DDOT": 0}, "tle": {"line1": "1 67041U 25294M   25361.50002315 -.01925963  00000+0 -24783-1 0  9994", "line2": "2 67041  42.9990  92.1797 0001425 280.5071 120.3947 15.61501320  2487"}}, "geometry": {"type": "Point", "coordinates": [-47.647908356534444, -31.699387006362674]}}, {"type": "Feature", "properties": {"norad_id": 67042, "name": "STARLINK-35773", "group": "last-30-days", "lat": -32.70860288714553, "lon": -45.60059060259538, "alt_km": 388.4470609633727, "timestamp": "2025-12-27T17:24:56.108672+00:00", "meta": {"OBJECT_NAME": "STARLINK-35773", "OBJECT_ID": "2025-294N", "EPOCH": "2025-12-27T12:00:02.000160", "MEAN_MOTION": 15.61497513, "ECCENTRICITY": 0.0001338, "INCLINATION": 42.9991, "RA_OF_ASC_NODE": 92.1739, "ARG_OF_PERICENTER": 283.9276, "MEAN_ANOMALY": 118.9918, "EPHEMERIS_TYPE": 0, "CLASSIFICATION_TYPE": "U", "NORAD_CAT_ID": 67042, "ELEMENT_SET_NO": 999, "REV_AT_EPOCH": 267, "BSTAR": -0.025011, "MEAN_MOTION_DOT": -0.01941268, "MEAN_MOTION_DDOT": 0}, "tle": {"line1": "1 67042U 25294N   25361.50002315 -.01941268  00000+0 -25011-1 0  9996", "line2": "2 67042  42.9991  92.1739 0001338 283.9276 118.9918 15.61497513  2672"}}, "geometry": {"type": "Point", "coordinates": [-45.60059060259538, -32.70860288714553]}}, {"type": "Feature", "properties": {"norad_id": 67043, "name": "STARLINK-35901", "group": "last-30-days", "lat": -33.67872604988818, "lon": -43.51563415349546, "alt_km": 388.46533039256155, "timestamp": "2025-12-27T17:24:56.108683+00:00", "meta": {"OBJECT_NAME": "STARLINK-35901", "OBJECT_ID": "2025-294P", "EPOCH": "2025-12-27T12:00:02.000160", "MEAN_MOTION": 15.61482169, "ECCENTRICITY": 0.0001529, "INCLINATION": 42.9989, "RA_OF_ASC_NODE": 92.1698, "ARG_OF_PERICENTER": 286.6222, "MEAN_ANOMALY": 118.311, "EPHEMERIS_TYPE": 0, "CLASSIFICATION_TYPE": "U", "NORAD_CAT_ID": 67043, "ELEMENT_SET_NO": 999, "REV_AT_EPOCH": 267, "BSTAR": -0.024877, "MEAN_MOTION_DOT": -0.01931181, "MEAN_MOTION_DDOT": 0}, "tle": {"line1": "1 67043U 25294P   25361.50002315 -.01931181  00000+0 -24877-1 0  9999", "line2": "2 67043  42.9989  92.1698 0001529 286.6222 118.3110 15.61482169  2676"}}, "geometry": {"type": "Point", "coordinates": [-43.51563415349546, -33.67872604988818]}}, {"type": "Feature", "properties": {"norad_id": 67044, "name": "STARLINK-35884", "group": "last-30-days", "lat": -34.605256044658134, "lon": -41.40362016530476, "alt_km": 388.4753500595625, "timestamp": "2025-12-27T17:24:56.108696+00:00", "meta": {"OBJECT_NAME": "STARLINK-35884", "OBJECT_ID": "2025-294Q", "EPOCH": "2025-12-27T12:00:02.000160", "MEAN_MOTION": 15.6146907, "ECCENTRICITY": 0.0001527, "INCLINATION": 42.9992, "RA_OF_ASC_NODE": 92.1651, "ARG_OF_PERICENTER": 284.7369, "MEAN_ANOMALY": 122.1883, "EPHEMERIS_TYPE": 0, "CLASSIFICATION_TYPE": "U", "NORAD_CAT_ID": 67044, "ELEMENT_SET_NO": 999, "REV_AT_EPOCH": 267, "BSTAR": -0.024753, "MEAN_MOTION_DOT": -0.01921812, "MEAN_MOTION_DDOT": 0}, "tle": {"line1": "1 67044U 25294Q   25361.50002315 -.01921812  00000+0 -24753-1 0  9993", "line2": "2 67044  42.9992  92.1651 0001527 284.7369 122.1883 15.61469070  2675"}}, "geometry": {"type": "Point", "coordinates": [-41.40362016530476, -34.605256044658134]}}, {"type": "Feature", "properties": {"norad_id": 67045, "name": "STARLINK-35891", "group": "last-30-days", "lat": -35.544134844319544, "lon": -39.119221678023116, "alt_km": 388.53780551773525, "timestamp": "2025-12-27T17:24:56.108708+00:00", "meta": {"OBJECT_NAME": "STARLINK-35891", "OBJECT_ID": "2025-294R", "EPOCH": "2025-12-27T12:00:02.000160", "MEAN_MOTION": 15.61446371, "ECCENTRICITY": 0.000156, "INCLINATION": 42.9989, "RA_OF_ASC_NODE": 92.1593, "ARG_OF_PERICENTER": 284.7532, "MEAN_ANOMALY": 124.2885, "EPHEMERIS_TYPE": 0, "CLASSIFICATION_TYPE": "U", "NORAD_CAT_ID": 67045, "ELEMENT_SET_NO": 999, "REV_AT_EPOCH": 259, "BSTAR": -0.024726, "MEAN_MOTION_DOT": -0.01918529, "MEAN_MOTION_DDOT": 0}, "tle": {"line1": "1 67045U 25294R   25361.50002315 -.01918529  00000+0 -24726-1 0  9995", "line2": "2 67045  42.9989  92.1593 0001560 284.7532 124.2885 15.61446371  2591"}}, "geometry": {"type": "Point", "coordinates": [-39.119221678023116, -35.544134844319544]}}, {"type": "Feature", "properties": {"norad_id": 67046, "name": "STARLINK-35721", "group": "last-30-days", "lat": -36.41201527838224, "lon": -36.85475865869621, "alt_km": 388.5644617148446, "timestamp": "2025-12-27T17:24:56.108718+00:00", "meta": {"OBJECT_NAME": "STARLINK-35721", "OBJECT_ID": "2025-294S", "EPOCH": "2025-12-27T12:00:02.000160", "MEAN_MOTION": 15.61430865, "ECCENTRICITY": 0.0001612, "INCLINATION": 42.9992, "RA_OF_ASC_NODE": 92.1546, "ARG_OF_PERICENTER": 284.662, "MEAN_ANOMALY": 126.4253, "EPHEMERIS_TYPE": 0, "CLASSIFICATION_TYPE": "U", "NORAD_CAT_ID": 67046, "ELEMENT_SET_NO": 999, "REV_AT_EPOCH": 267, "BSTAR": -0.024696, "MEAN_MOTION_DOT": -0.01915498, "MEAN_MOTION_DDOT": 0}, "tle": {"line1": "1 67046U 25294S   25361.50002315 -.01915498  00000+0 -24696-1 0  9994", "line2": "2 67046  42.9992  92.1546 0001612 284.6620 126.4253 15.61430865  2672"}}, "geometry": {"type": "Point", "coordinates": [-36.85475865869621, -36.41201527838224]}}, {"type": "Feature", "properties": {"norad_id": 67047, "name": "STARLINK-35779", "group": "last-30-days", "lat": -37.264606817724, "lon": -34.456960367949755, "alt_km": 388.78507395149063, "timestamp": "2025-12-27T17:24:56.108728+00:00", "meta": {"OBJECT_NAME": "STARLINK-35779", "OBJECT_ID": "2025-294T", "EPOCH": "2025-12-27T12:00:02.000160", "MEAN_MOTION": 15.61424823, "ECCENTRICITY": 0.0001315, "INCLINATION": 42.9991, "RA_OF_ASC_NODE": 92.1484, "ARG_OF_PERICENTER": 284.507, "MEAN_ANOMALY": 128.6963, "EPHEMERIS_TYPE": 0, "CLASSIFICATION_TYPE": "U", "NORAD_CAT_ID": 67047, "ELEMENT_SET_NO": 999, "REV_AT_EPOCH": 248, "BSTAR": -0.025134, "MEAN_MOTION_DOT": -0.0194479, "MEAN_MOTION_DDOT": 0}, "tle": {"line1": "1 67047U 25294T   25361.50002315 -.01944790  00000+0 -25134-1 0  9990", "line2": "2 67047  42.9991  92.1484 0001315 284.5070 128.6963 15.61424823  2489"}}, "geometry": {"type": "Point", "coordinates": [-34.456960367949755, -37.264606817724]}}, {"type": "Feature", "properties": {"norad_id": 67048, "name": "STARLINK-35905", "group": "last-30-days", "lat": -38.00422120916377, "lon": -32.20688012595507, "alt_km": 388.76341154472266, "timestamp": "2025-12-27T17:24:56.108739+00:00", "meta": {"OBJECT_NAME": "STARLINK-35905", "OBJECT_ID": "2025-294U", "EPOCH": "2025-12-27T12:00:02.000160", "MEAN_MOTION": 15.61415998, "ECCENTRICITY": 0.0001371, "INCLINATION": 42.9994, "RA_OF_ASC_NODE": 92.1438, "ARG_OF_PERICENTER": 283.7833, "MEAN_ANOMALY": 131.3595, "EPHEMERIS_TYPE": 0, "CLASSIFICATION_TYPE": "U", "NORAD_CAT_ID": 67048, "ELEMENT_SET_NO": 999, "REV_AT_EPOCH": 259, "BSTAR": -0.02496, "MEAN_MOTION_DOT": -0.01932339, "MEAN_MOTION_DDOT": 0}, "tle": {"line1": "1 67048U 25294U   25361.50002315 -.01932339  00000+0 -24960-1 0  9993", "line2": "2 67048  42.9994  92.1438 0001371 283.7833 131.3595 15.61415998  2599"}}, "geometry": {"type": "Point", "coordinates": [-32.20688012595507, -38.00422120916377]}}, {"type": "Feature", "properties": {"norad_id": 67049, "name": "STARLINK-35877", "group": "last-30-days", "lat": -38.744748714672085, "lon": -29.75642899783195, "alt_km": 388.73142303308305, "timestamp": "2025-12-27T17:24:56.108749+00:00", "meta": {"OBJECT_NAME": "STARLINK-35877", "OBJECT_ID": "2025-294V", "EPOCH": "2025-12-27T12:00:02.000160", "MEAN_MOTION": 15.61389613, "ECCENTRICITY": 0.0001561, "INCLINATION": 42.9996, "RA_OF_ASC_NODE": 92.1396, "ARG_OF_PERICENTER": 284.3645, "MEAN_ANOMALY": 132.8622, "EPHEMERIS_TYPE": 0, "CLASSIFICATION_TYPE": "U", "NORAD_CAT_ID": 67049, "ELEMENT_SET_NO": 999, "REV_AT_EPOCH": 267, "BSTAR": -0.024764, "MEAN_MOTION_DOT": -0.01917383, "MEAN_MOTION_DDOT": 0}, "tle": {"line1": "1 67049U 25294V   25361.50002315 -.01917383  00000+0 -24764-1 0  9998", "line2": "2 67049  42.9996  92.1396 0001561 284.3645 132.8622 15.61389613  2674"}}, "geometry": {"type": "Point", "coordinates": [-29.75642899783195, -38.744748714672085]}}, {"type": "Feature", "properties": {"norad_id": 67050, "name": "STARLINK-36078", "group": "last-30-days", "lat": -39.43753335066238, "lon": -27.239460883019763, "alt_km": 388.9331759388606, "timestamp": "2025-12-27T17:24:56.108759+00:00", "meta": {"OBJECT_NAME": "STARLINK-36078", "OBJECT_ID": "2025-294W", "EPOCH": "2025-12-27T12:00:02.000160", "MEAN_MOTION": 15.61384304, "ECCENTRICITY": 0.0001364, "INCLINATION": 42.9995, "RA_OF_ASC_NODE": 92.1335, "ARG_OF_PERICENTER": 287.1099, "MEAN_ANOMALY": 132.2057, "EPHEMERIS_TYPE": 0, "CLASSIFICATION_TYPE": "U", "NORAD_CAT_ID": 67050, "ELEMENT_SET_NO": 999, "REV_AT_EPOCH": 259, "BSTAR": -0.025132, "MEAN_MOTION_DOT": -0.01941923, "MEAN_MOTION_DDOT": 0}, "tle": {"line1": "1 67050U 25294W   25361.50002315 -.01941923  00000+0 -25132-1 0  9997", "line2": "2 67050  42.9995  92.1335 0001364 287.1099 132.2057 15.61384304  2592"}}, "geometry": {"type": "Point", "coordinates": [-27.239460883019763, -39.43753335066238]}}]}